[{"OBJECT_NAME":"ION SCV-011","OBJECT_ID":"2023-084AB","EPOCH":"2026-03-09T22:35:16.566144","MEAN_MOTION":15.27752464,"ECCENTRICITY":0.00079323,"INCLINATION":98.1356,"RA_OF_ASC_NODE":247.1056,"ARG_OF_PERICENTER":30.3898,"MEAN_ANOMALY":329.7798,"EPHEMERIS_TYPE":0,"CLASSIFICATION_TYPE":"U","NORAD_CAT_ID":56957,"ELEMENT_SET_NO":999,"REV_AT_EPOCH":15065,"BSTAR":0.0002590454,"MEAN_MOTION_DOT":6.943e-5,"MEAN_MOTION_DDOT":0},{"OBJECT_NAME":"STARLINK-32398","OBJECT_ID":"2024-191D","EPOCH":"2026-03-09T06:45:13.260672","MEAN_MOTION":15.27572401,"ECCENTRICITY":5.358e-5,"INCLINATION":43.0003,"RA_OF_ASC_NODE":156.8408,"ARG_OF_PERICENTER":258.4868,"MEAN_ANOMALY":101.5923,"EPHEMERIS_TYPE":0,"CLASSIFICATION_TYPE":"U","NORAD_CAT_ID":61624,"ELEMENT_SET_NO":999,"REV_AT_EPOCH":7747,"BSTAR":9.819973e-6,"MEAN_MOTION_DOT":8.0e-8,"MEAN_MOTION_DDOT":0}]
